[{"OBJECT_NAME":"STARLINK-36138","OBJECT_ID":"2025-294A","EPOCH":"2026-03-09T06:27:19.872000","MEAN_MOTION":15.27539097,"ECCENTRICITY":0.00017311,"INCLINATION":43.0005,"RA_OF_ASC_NODE":40.5564,"ARG_OF_PERICENTER":260.191,"MEAN_ANOMALY":99.8746,"EPHEMERIS_TYPE":0,"CLASSIFICATION_TYPE":"U","NORAD_CAT_ID":67030,"ELEMENT_SET_NO":999,"REV_AT_EPOCH":1473,"BSTAR":0.00090056987,"MEAN_MOTION_DOT":0.00024572,"MEAN_MOTION_DDOT":0},{"OBJECT_NAME":"CZ-6A DEB","OBJECT_ID":"2024-140AAN","EPOCH":"2026-03-09T15:08:07.195776","MEAN_MOTION":15.20547394,"ECCENTRICITY":0.0064261,"INCLINATION":89.3669,"RA_OF_ASC_NODE":306.3092,"ARG_OF_PERICENTER":93.6352,"MEAN_ANOMALY":267.2246,"EPHEMERIS_TYPE":0,"CLASSIFICATION_TYPE":"U","NORAD_CAT_ID":61480,"ELEMENT_SET_NO":999,"REV_AT_EPOCH":8198,"BSTAR":0.0033609,"MEAN_MOTION_DOT":0.00078405,"MEAN_MOTION_DDOT":0}]
